{
    "links": {
        "self": "http://www.neowsapp.com/rest/v1/neo/3545513?api_key=iIulBulltgU6a56xZRHN4H3l9WmuAYTsLGpBGhQ2"
    },
    "id": "3545513",
    "neo_reference_id": "3545513",
    "name": "(2010 RB12)",
    "designation": "2010 RB12",
    "nasa_jpl_url": "http://ssd.jpl.nasa.gov/sbdb.cgi?sstr=3545513",
    "absolute_magnitude_h": 27.0,
    "estimated_diameter": {
        "kilometers": {
            "estimated_diameter_min": 0.0105816886,
            "estimated_diameter_max": 0.023661375
        },
        "meters": {
            "estimated_diameter_min": 10.5816885933,
            "estimated_diameter_max": 23.6613750114
        },
        "miles": {
            "estimated_diameter_min": 0.0065751544,
            "estimated_diameter_max": 0.0147024923
        },
        "feet": {
            "estimated_diameter_min": 34.7168272045,
            "estimated_diameter_max": 77.6291855923
        }
    },
    "is_potentially_hazardous_asteroid": false,
    "close_approach_data": [
        {
            "close_approach_date": "1906-12-08",
            "close_approach_date_full": "1906-Dec-08 17:42",
            "epoch_date_close_approach": -1990160280000,
            "relative_velocity": {
                "kilometers_per_second": "13.7905378498",
                "kilometers_per_hour": "49645.9362592084",
                "miles_per_hour": "30848.0541161731"
            },
            "miss_distance": {
                "astronomical": "0.1025482465",
                "lunar": "39.8912678885",
                "kilometers": "15340999.248634955",
                "miles": "9532454.907294179"
            },
            "orbiting_body": "Earth"
        },
        {
            "close_approach_date": "2010-09-04",
            "close_approach_date_full": "2010-Sep-04 22:27",
            "epoch_date_close_approach": 1283639220000,
            "relative_velocity": {
                "kilometers_per_second": "13.1213604601",
                "kilometers_per_hour": "47236.8976562653",
                "miles_per_hour": "29351.1712131389"
            },
            "miss_distance": {
                "astronomical": "0.0064167699",
                "lunar": "2.4961234911",
                "kilometers": "959935.109320113",
                "miles": "596476.0179710394"
            },
            "orbiting_body": "Earth"
        },
        {
            "close_approach_date": "2010-09-05",
            "close_approach_date_full": "2010-Sep-05 04:10",
            "epoch_date_close_approach": 1283659800000,
            "relative_velocity": {
                "kilometers_per_second": "12.8407286289",
                "kilometers_per_hour": "46226.6230640069",
                "miles_per_hour": "28723.4258699658"
            },
            "miss_distance": {
                "astronomical": "0.0057527625",
                "lunar": "2.2378246125",
                "kilometers": "860601.016615875",
                "miles": "534752.674914075"
            },
            "orbiting_body": "Moon"
        }
    ],
    "orbital_data": {
        "orbit_id": "8",
        "orbit_determination_date": "2019-07-17 06:08:58",
        "first_observation_date": "2010-09-01",
        "last_observation_date": "2010-09-04",
        "data_arc_in_days": 3,
        "observations_used": 43,
        "orbit_uncertainty": "8",
        "minimum_orbit_intersection": ".00196811",
        "jupiter_tisserand_invariant": "3.219",
        "epoch_osculation": "2455441.5",
        "eccentricity": ".6316305660222487",
        "semi_major_axis": "2.396348389154843",
        "inclination": "5.279983938524691",
        "ascending_node_longitude": "161.7514882661466",
        "orbital_period": "1354.95029271551",
        "perihelion_distance": ".8827414997264657",
        "perihelion_argument": "228.5264104593822",
        "aphelion_distance": "3.90995527858322",
        "perihelion_time": "2455479.041787383253",
        "mean_anomaly": "350.0254322755375",
        "mean_motion": ".2656924035777796",
        "equinox": "J2000",
        "orbit_class": {
            "orbit_class_type": "APO",
            "orbit_class_description": "Near-Earth asteroid orbits which cross the Earth’s orbit similar to that of 1862 Apollo",
            "orbit_class_range": "a (semi-major axis) > 1.0 AU; q (perihelion) < 1.017 AU"
        }
    },
    "is_sentry_object": false
}